0 CBERS 1 DEB
1 32064U 99057QC  13282.21664588  .00030889  00000-0  55161-2 0  5164
2 32064 098.2015 283.9963 0021284 160.1144 260.9435 14.66702432334235
0 CBERS 1 DEB
1 32064U 99057QC  13282.84207326  .00021057  00000-0  37657-2 0  5174
2 32064 098.2016 284.6216 0021365 158.2504 323.2088 14.66736443334329
0 CBERS 1 DEB
1 32064U 99057QC  13284.26228245  .00023619  00000-0  42172-2 0  5180
2 32064 098.2016 286.0417 0021536 154.0471 262.1241 14.66776237334535
0 CBERS 1 DEB
1 32064U 99057QC  13285.21813777  .00018912  00000-0  33780-2 0  5192
2 32064 098.2016 286.9979 0021545 151.2167 269.3130 14.66813133334676
0 CBERS 1 DEB
1 32064U 99057QC  13286.79927203  .00020511  00000-0  36574-2 0  5200
2 32064 098.2009 288.5791 0021740 146.4984 338.4561 14.66866114334907
0 CBERS 1 DEB
1 32064U 99057QC  13287.82211956  .00028926  00000-0  51427-2 0  5219
2 32064 098.2007 289.6022 0021820 143.5020 339.6866 14.66910360335053
0 CBERS 1 DEB
1 32064U 99057QC  13289.24177203  .00027518  00000-0  48855-2 0  5221
2 32064 098.2002 291.0221 0021934 139.3978 276.5549 14.66983645335263
0 CBERS 1 DEB
1 32064U 99057QC  13290.26547517  .00029829  00000-0  52884-2 0  5239
2 32064 098.2001 292.0461 0022016 136.4961 282.6515 14.67022749335419
0 CBERS 1 DEB
1 32064U 99057QC  13291.22066093  .00024835  00000-0  44031-2 0  5249
2 32064 098.2002 293.0015 0022042 133.6075 287.2376 14.67070244335554
0 CBERS 1 DEB
1 32064U 99057QC  13292.24380878  .00023267  00000-0  41224-2 0  5252
2 32064 098.2003 294.0250 0022063 130.5512 290.8729 14.67114694335709
0 CBERS 1 DEB
1 32064U 99057QC  13295.24349685  .00030058  00000-0  53028-2 0  5268
2 32064 098.2011 297.0254 0022303 122.1492 293.7265 14.67236280336148
